ONEWEB-0045             
1 45151U 20008W   24291.53616846  .00000594  00000+0  16400-2 0  9993
2 45151  87.8909 142.0880 0001780  83.1602 276.9729 13.11410825230764
ONEWEB-0047             
1 45152U 20008X   24291.34341588 -.00000358  00000+0 -10626-2 0  9995
2 45152  87.8935 157.2784 0001579  78.4555 281.6749 13.10369371228596
ONEWEB-0048             
1 45153U 20008Y   24291.33844105 -.00000096  00000+0 -31074-3 0  9998
2 45153  87.8935 157.2975 0001530  78.2002 281.9297 13.10370265228204
ONEWEB-0049             
1 45154U 20008Z   24291.34010365 -.00000213  00000+0 -64704-3 0  9990
2 45154  87.8949 157.2798 0001286  65.5069 294.6192 13.10370331228426
ONEWEB-0051             
1 45155U 20008AA  24291.53446431 -.00000385  00000+0 -11227-2 0  9990
2 45155  87.8913 142.1296 0001761  77.2159 282.9166 13.11413670231444
ONEWEB-0052             
1 45156U 20008AB  24291.33678209 -.00000070  00000+0 -23628-3 0  9999
2 45156  87.8928 157.2447 0001092  79.7250 280.4000 13.10370383228338
ONEWEB-0053             
1 45157U 20008AC  24291.16582367  .00000730  00000+0  20538-2 0  9997
2 45157  87.8934 157.3338 0001735  90.1832 269.9494 13.10372818228281
ONEWEB-0054             
1 45158U 20008AD  24291.35337369 -.00000621  00000+0 -18141-2 0  9997
2 45158  87.8933 157.2762 0001647  76.1615 283.9696 13.10372598228427
